start=new Date('2023-01-31T00:00:00.000Z').valueOf();
sats=[{"MEAN_ANOMALY":"275.9879","SEMIMAJOR_AXIS":"6941.143","INCLINATION":"97.6576","CENTER_NAME":"EARTH","LAUNCH_DATE":"2022-07-11","PERIAPSIS":"562.174","TLE_LINE1":"1 53060U 22077T   23030.93041183  .00000718  00000-0  60468-4 0  9993","APOAPSIS":"563.842","NORAD_CAT_ID":"53060","RCS_SIZE":"LARGE","RA_OF_ASC_NODE":"213.9644","TIME_SYSTEM":"UTC","EPHEMERIS_TYPE":"0","FILE":"3765849","GP_ID":"224055566","REV_AT_EPOCH":"3081","ARG_OF_PERICENTER":"84.1483","MEAN_MOTION":"15.01261199","ELEMENT_SET_NO":"999","SITE":"AFWTR","OBJECT_TYPE":"PAYLOAD","DECAY_DATE":null,"OBJECT_ID":"2022-077T","EPOCH":"2023-01-30T22:19:47.582112","REF_FRAME":"TEME","MEAN_MOTION_DOT":"0.00000718","BSTAR":"0.00006046800000","MEAN_MOTION_DDOT":"0.0000000000000","OBJECT_NAME":"STARLINK-4305","MEAN_ELEMENT_THEORY":"SGP4","COUNTRY_CODE":"US","PERIOD":"95.919","TLE_LINE2":"2 53060  97.6576 213.9644 0001202  84.1483 275.9879 15.01261199 30812","CLASSIFICATION_TYPE":"U","ECCENTRICITY":"0.00012020"},{"TLE_LINE1":"1 53061U 22077U   23030.85634903  .00001033  00000-0  84999-4 0  9999","NORAD_CAT_ID":"53061","APOAPSIS":"563.907","TIME_SYSTEM":"UTC","RCS_SIZE":"LARGE","RA_OF_ASC_NODE":"213.8968","FILE":"3765849","EPHEMERIS_TYPE":"0","ARG_OF_PERICENTER":"96.1124","GP_ID":"224054315","REV_AT_EPOCH":"3080","MEAN_MOTION":"15.01263889","ELEMENT_SET_NO":"999","SITE":"AFWTR","OBJECT_TYPE":"PAYLOAD","MEAN_ANOMALY":"264.0249","SEMIMAJOR_AXIS":"6941.135","INCLINATION":"97.6588","CENTER_NAME":"EARTH","LAUNCH_DATE":"2022-07-11","PERIAPSIS":"562.093","PERIOD":"95.919","TLE_LINE2":"2 53061  97.6588 213.8968 0001307  96.1124 264.0249 15.01263889 30802","CLASSIFICATION_TYPE":"U","ECCENTRICITY":"0.00013070","DECAY_DATE":null,"OBJECT_ID":"2022-077U","EPOCH":"2023-01-30T20:33:08.556192","REF_FRAME":"TEME","MEAN_MOTION_DOT":"0.00001033","BSTAR":"0.00008499900000","MEAN_MOTION_DDOT":"0.0000000000000","MEAN_ELEMENT_THEORY":"SGP4","OBJECT_NAME":"STARLINK-4308","COUNTRY_CODE":"US"},{"SEMIMAJOR_AXIS":"6941.143","MEAN_ANOMALY":"274.3438","PERIAPSIS":"562.285","LAUNCH_DATE":"2022-07-11","CENTER_NAME":"EARTH","INCLINATION":"97.6586","MEAN_MOTION":"15.01261360","ARG_OF_PERICENTER":"85.7905","GP_ID":"224054565","REV_AT_EPOCH":"3081","EPHEMERIS_TYPE":"0","FILE":"3765849","TIME_SYSTEM":"UTC","RCS_SIZE":"LARGE","RA_OF_ASC_NODE":"213.9671","APOAPSIS":"563.730","NORAD_CAT_ID":"53062","TLE_LINE1":"1 53062U 22077V   23030.92670934  .00001049  00000-0  86264-4 0  9996","OBJECT_TYPE":"PAYLOAD","SITE":"AFWTR","ELEMENT_SET_NO":"999","REF_FRAME":"TEME","OBJECT_ID":"2022-077V","EPOCH":"2023-01-30T22:14:27.686976","DECAY_DATE":null,"COUNTRY_CODE":"US","MEAN_MOTION_DDOT":"0.0000000000000","OBJECT_NAME":"STARLINK-4311","MEAN_ELEMENT_THEORY":"SGP4","BSTAR":"0.00008626400000","MEAN_MOTION_DOT":"0.00001049","TLE_LINE2":"2 53062  97.6586 213.9671 0001041  85.7905 274.3438 15.01261360 30816","PERIOD":"95.919","ECCENTRICITY":"0.00010410","CLASSIFICATION_TYPE":"U"},{"MEAN_MOTION":"15.01262513","GP_ID":"223998607","ARG_OF_PERICENTER":"96.9374","REV_AT_EPOCH":"3075","EPHEMERIS_TYPE":"0","FILE":"3765576","RA_OF_ASC_NODE":"213.5317","RCS_SIZE":"LARGE","TIME_SYSTEM":"UTC","APOAPSIS":"563.959","NORAD_CAT_ID":"53063","TLE_LINE1":"1 53063U 22077W   23030.48630515  .00000304  00000-0  28287-4 0  9993","OBJECT_TYPE":"PAYLOAD","SITE":"AFWTR","ELEMENT_SET_NO":"999","SEMIMAJOR_AXIS":"6941.139","MEAN_ANOMALY":"263.2007","PERIAPSIS":"562.049","LAUNCH_DATE":"2022-07-11","CENTER_NAME":"EARTH","INCLINATION":"97.6543","TLE_LINE2":"2 53063  97.6543 213.5317 0001376  96.9374 263.2007 15.01262513 30751","PERIOD":"95.919","ECCENTRICITY":"0.00013760","CLASSIFICATION_TYPE":"U","REF_FRAME":"TEME","EPOCH":"2023-01-30T11:40:16.764960","OBJECT_ID":"2022-077W","DECAY_DATE":null,"COUNTRY_CODE":"US","MEAN_MOTION_DDOT":"0.0000000000000","OBJECT_NAME":"STARLINK-4307","MEAN_ELEMENT_THEORY":"SGP4","BSTAR":"0.00002828700000","MEAN_MOTION_DOT":"0.00000304"},{"CLASSIFICATION_TYPE":"U","ECCENTRICITY":"0.00007220","PERIOD":"95.919","TLE_LINE2":"2 53064  97.6595 213.9614 0000722 102.2185 257.9120 15.01261779 30814","MEAN_MOTION_DOT":"0.00001001","BSTAR":"0.00008255100000","MEAN_MOTION_DDOT":"0.0000000000000","OBJECT_NAME":"STARLINK-4313","MEAN_ELEMENT_THEORY":"SGP4","COUNTRY_CODE":"US","DECAY_DATE":null,"EPOCH":"2023-01-30T22:11:47.633568","OBJECT_ID":"2022-077X","REF_FRAME":"TEME","ELEMENT_SET_NO":"999","SITE":"AFWTR","OBJECT_TYPE":"PAYLOAD","TLE_LINE1":"1 53064U 22077X   23030.92485687  .00001001  00000-0  82551-4 0  9990","NORAD_CAT_ID":"53064","APOAPSIS":"563.508","RCS_SIZE":"LARGE","RA_OF_ASC_NODE":"213.9614","TIME_SYSTEM":"UTC","EPHEMERIS_TYPE":"0","FILE":"3765849","ARG_OF_PERICENTER":"102.2185","GP_ID":"224056065","REV_AT_EPOCH":"3081","MEAN_MOTION":"15.01261779","INCLINATION":"97.6595","CENTER_NAME":"EARTH","PERIAPSIS":"562.505","LAUNCH_DATE":"2022-07-11","MEAN_ANOMALY":"257.9120","SEMIMAJOR_AXIS":"6941.141"},{"OBJECT_TYPE":"PAYLOAD","SITE":"AFWTR","ELEMENT_SET_NO":"999","MEAN_MOTION":"15.01261484","REV_AT_EPOCH":"3079","GP_ID":"224054815","ARG_OF_PERICENTER":"60.3580","FILE":"3765849","EPHEMERIS_TYPE":"0","RCS_SIZE":"LARGE","RA_OF_ASC_NODE":"213.8351","TIME_SYSTEM":"UTC","NORAD_CAT_ID":"53065","APOAPSIS":"563.417","TLE_LINE1":"1 53065U 22077Y   23030.78599676  .00001583  00000-0  12779-3 0  9998","LAUNCH_DATE":"2022-07-11","PERIAPSIS":"562.598","CENTER_NAME":"EARTH","INCLINATION":"97.6573","SEMIMAJOR_AXIS":"6941.142","MEAN_ANOMALY":"299.7703","ECCENTRICITY":"0.00005900","CLASSIFICATION_TYPE":"U","TLE_LINE2":"2 53065  97.6573 213.8351 0000590  60.3580 299.7703 15.01261484 30795","PERIOD":"95.919","COUNTRY_CODE":"US","OBJECT_NAME":"STARLINK-4312","MEAN_MOTION_DDOT":"0.0000000000000","MEAN_ELEMENT_THEORY":"SGP4","BSTAR":"0.00012779000000","MEAN_MOTION_DOT":"0.00001583","REF_FRAME":"TEME","OBJECT_ID":"2022-077Y","EPOCH":"2023-01-30T18:51:50.120064","DECAY_DATE":null},{"TLE_LINE2":"2 53066  97.6578 213.8991 0000430  51.3702 308.7561 15.01261703 30809","PERIOD":"95.919","ECCENTRICITY":"0.00004300","CLASSIFICATION_TYPE":"U","OBJECT_ID":"2022-077Z","EPOCH":"2023-01-30T20:30:28.882080","REF_FRAME":"TEME","DECAY_DATE":null,"MEAN_MOTION_DDOT":"0.0000000000000","MEAN_ELEMENT_THEORY":"SGP4","OBJECT_NAME":"STARLINK-4309","COUNTRY_CODE":"US","MEAN_MOTION_DOT":"0.00000811","BSTAR":"0.00006773600000","GP_ID":"224055065","REV_AT_EPOCH":"3080","ARG_OF_PERICENTER":"51.3702","MEAN_MOTION":"15.01261703","EPHEMERIS_TYPE":"0","FILE":"3765849","APOAPSIS":"563.305","NORAD_CAT_ID":"53066","RA_OF_ASC_NODE":"213.8991","RCS_SIZE":"LARGE","TIME_SYSTEM":"UTC","TLE_LINE1":"1 53066U 22077Z   23030.85450095  .00000811  00000-0  67736-4 0  9995","SITE":"AFWTR","OBJECT_TYPE":"PAYLOAD","ELEMENT_SET_NO":"999","SEMIMAJOR_AXIS":"6941.142","MEAN_ANOMALY":"308.7561","LAUNCH_DATE":"2022-07-11","PERIAPSIS":"562.708","CENTER_NAME":"EARTH","INCLINATION":"97.6578"},{"INCLINATION":"97.6557","LAUNCH_DATE":"2022-07-11","PERIAPSIS":"562.320","CENTER_NAME":"EARTH","MEAN_ANOMALY":"315.6947","SEMIMAJOR_AXIS":"6941.143","OBJECT_TYPE":"PAYLOAD","SITE":"AFWTR","ELEMENT_SET_NO":"999","RCS_SIZE":"LARGE","RA_OF_ASC_NODE":"213.9668","TIME_SYSTEM":"UTC","APOAPSIS":"563.696","NORAD_CAT_ID":"53067","TLE_LINE1":"1 53067U 22077AA  23030.91560029  .00000548  00000-0  47229-4 0  9994","MEAN_MOTION":"15.01261344","GP_ID":"224055317","REV_AT_EPOCH":"3081","ARG_OF_PERICENTER":"44.4357","EPHEMERIS_TYPE":"0","FILE":"3765849","BSTAR":"0.00004722900000","MEAN_MOTION_DOT":"0.00000548","COUNTRY_CODE":"US","MEAN_MOTION_DDOT":"0.0000000000000","MEAN_ELEMENT_THEORY":"SGP4","OBJECT_NAME":"STARLINK-4306","REF_FRAME":"TEME","EPOCH":"2023-01-30T21:58:27.865056","OBJECT_ID":"2022-077AA","DECAY_DATE":null,"ECCENTRICITY":"0.00009910","CLASSIFICATION_TYPE":"U","PERIOD":"95.919","TLE_LINE2":"2 53067  97.6557 213.9668 0000991  44.4357 315.6947 15.01261344 30817"},{"TLE_LINE2":"2 53068  97.6562 213.9675 0000682  39.3185 320.8088 15.01261365 30818","PERIOD":"95.919","ECCENTRICITY":"0.00006820","CLASSIFICATION_TYPE":"U","REF_FRAME":"TEME","OBJECT_ID":"2022-077AB","EPOCH":"2023-01-30T22:01:28.950816","DECAY_DATE":null,"COUNTRY_CODE":"US","MEAN_MOTION_DDOT":"0.0000000000000","MEAN_ELEMENT_THEORY":"SGP4","OBJECT_NAME":"STARLINK-4325","BSTAR":"0.00005944200000","MEAN_MOTION_DOT":"0.00000705","MEAN_MOTION":"15.01261365","GP_ID":"224055567","ARG_OF_PERICENTER":"39.3185","REV_AT_EPOCH":"3081","FILE":"3765849","EPHEMERIS_TYPE":"0","RA_OF_ASC_NODE":"213.9675","RCS_SIZE":"LARGE","TIME_SYSTEM":"UTC","APOAPSIS":"563.481","NORAD_CAT_ID":"53068","TLE_LINE1":"1 53068U 22077AB  23030.91769619  .00000705  00000-0  59442-4 0  9996","OBJECT_TYPE":"PAYLOAD","SITE":"AFWTR","ELEMENT_SET_NO":"999","SEMIMAJOR_AXIS":"6941.143","MEAN_ANOMALY":"320.8088","PERIAPSIS":"562.534","LAUNCH_DATE":"2022-07-11","CENTER_NAME":"EARTH","INCLINATION":"97.6562"},{"PERIOD":"95.919","TLE_LINE2":"2 53069  97.6547 213.6389 0000931  52.9673 307.1636 15.01262323 30767","CLASSIFICATION_TYPE":"U","ECCENTRICITY":"0.00009310","DECAY_DATE":null,"REF_FRAME":"TEME","OBJECT_ID":"2022-077AC","EPOCH":"2023-01-30T13:53:14.076096","BSTAR":"0.00006312200000","MEAN_MOTION_DOT":"0.00000752","COUNTRY_CODE":"US","OBJECT_NAME":"STARLINK-4323","MEAN_MOTION_DDOT":"0.0000000000000","MEAN_ELEMENT_THEORY":"SGP4","TLE_LINE1":"1 53069U 22077AC  23030.57863514  .00000752  00000-0  63122-4 0  9990","RCS_SIZE":"LARGE","TIME_SYSTEM":"UTC","RA_OF_ASC_NODE":"213.6389","NORAD_CAT_ID":"53069","APOAPSIS":"563.651","FILE":"3765576","EPHEMERIS_TYPE":"0","MEAN_MOTION":"15.01262323","GP_ID":"223997620","REV_AT_EPOCH":"3076","ARG_OF_PERICENTER":"52.9673","ELEMENT_SET_NO":"999","OBJECT_TYPE":"PAYLOAD","SITE":"AFWTR","MEAN_ANOMALY":"307.1636","SEMIMAJOR_AXIS":"6941.140","INCLINATION":"97.6547","CENTER_NAME":"EARTH","PERIAPSIS":"562.358","LAUNCH_DATE":"2022-07-11"}];
